CCSDS_OMM_VERS = 2.0
CREATION_DATE  = 
ORIGINATOR     = 

OBJECT_NAME    = ELECTRON KICK STAGE R/B
OBJECT_ID      = 2025-297C
CENTER_NAME    = EARTH
REF_FRAME      = TEME
TIME_SYSTEM    = UTC
MEAN_ELEMENT_THEORY = SGP/SGP4

EPOCH          = 2025-12-25T23:42:12.159936
MEAN_MOTION    = 15.60381011
ECCENTRICITY   = .0188179
INCLINATION    = 97.4815
RA_OF_ASC_NODE = 148.0945
ARG_OF_PERICENTER = 221.4493
MEAN_ANOMALY   = 137.2363

EPHEMERIS_TYPE = 0
CLASSIFICATION_TYPE = U
NORAD_CAT_ID   = 67074
ELEMENT_SET_NO = 999
REV_AT_EPOCH   = 184
BSTAR          = .17982E-2
MEAN_MOTION_DOT = .359366E-2
MEAN_MOTION_DDOT = .37348E-4

CCSDS_OMM_VERS = 2.0
CREATION_DATE  = 
ORIGINATOR     = 

OBJECT_NAME    = STARLINK-36230
OBJECT_ID      = 2025-298A
CENTER_NAME    = EARTH
REF_FRAME      = TEME
TIME_SYSTEM    = UTC
MEAN_ELEMENT_THEORY = SGP/SGP4

EPOCH          = 2025-12-26T04:00:01.998720
MEAN_MOTION    = 15.77331927
ECCENTRICITY   = .0003768
INCLINATION    = 69.9968
RA_OF_ASC_NODE = 211.7984
ARG_OF_PERICENTER = 277.4552
MEAN_ANOMALY   = 185.2756

EPHEMERIS_TYPE = 0
CLASSIFICATION_TYPE = U
NORAD_CAT_ID   = 67075
ELEMENT_SET_NO = 999
REV_AT_EPOCH   = 313
BSTAR          = -.12161E-1
MEAN_MOTION_DOT = -.1770132E-1
MEAN_MOTION_DDOT = 0

CCSDS_OMM_VERS = 2.0
CREATION_DATE  = 
ORIGINATOR     = 

OBJECT_NAME    = STARLINK-36240
OBJECT_ID      = 2025-298B
CENTER_NAME    = EARTH
REF_FRAME      = TEME
TIME_SYSTEM    = UTC
MEAN_ELEMENT_THEORY = SGP/SGP4

EPOCH          = 2025-12-26T04:00:01.998720
MEAN_MOTION    = 15.77330102
ECCENTRICITY   = .0003473
INCLINATION    = 69.9967
RA_OF_ASC_NODE = 211.7960
ARG_OF_PERICENTER = 275.3092
MEAN_ANOMALY   = 189.3566

EPHEMERIS_TYPE = 0
CLASSIFICATION_TYPE = U
NORAD_CAT_ID   = 67076
ELEMENT_SET_NO = 999
REV_AT_EPOCH   = 313
BSTAR          = -.12152E-1
MEAN_MOTION_DOT = -.1768583E-1
MEAN_MOTION_DDOT = 0

CCSDS_OMM_VERS = 2.0
CREATION_DATE  = 
ORIGINATOR     = 

OBJECT_NAME    = STARLINK-36243
OBJECT_ID      = 2025-298C
CENTER_NAME    = EARTH
REF_FRAME      = TEME
TIME_SYSTEM    = UTC
MEAN_ELEMENT_THEORY = SGP/SGP4

EPOCH          = 2025-12-26T04:00:01.998720
MEAN_MOTION    = 15.77319548
ECCENTRICITY   = .0003724
INCLINATION    = 69.9965
RA_OF_ASC_NODE = 211.7933
ARG_OF_PERICENTER = 278.0299
MEAN_ANOMALY   = 188.8252

EPHEMERIS_TYPE = 0
CLASSIFICATION_TYPE = U
NORAD_CAT_ID   = 67077
ELEMENT_SET_NO = 999
REV_AT_EPOCH   = 313
BSTAR          = -.12161E-1
MEAN_MOTION_DOT = -.1769279E-1
MEAN_MOTION_DDOT = 0

CCSDS_OMM_VERS = 2.0
CREATION_DATE  = 
ORIGINATOR     = 

OBJECT_NAME    = STARLINK-36236
OBJECT_ID      = 2025-298D
CENTER_NAME    = EARTH
REF_FRAME      = TEME
TIME_SYSTEM    = UTC
MEAN_ELEMENT_THEORY = SGP/SGP4

EPOCH          = 2025-12-26T04:00:01.998720
MEAN_MOTION    = 15.77323604
ECCENTRICITY   = .0003695
INCLINATION    = 69.9970
RA_OF_ASC_NODE = 211.7911
ARG_OF_PERICENTER = 278.0924
MEAN_ANOMALY   = 190.5826

EPHEMERIS_TYPE = 0
CLASSIFICATION_TYPE = U
NORAD_CAT_ID   = 67078
ELEMENT_SET_NO = 999
REV_AT_EPOCH   = 313
BSTAR          = -.12159E-1
MEAN_MOTION_DOT = -.1769265E-1
MEAN_MOTION_DDOT = 0

CCSDS_OMM_VERS = 2.0
CREATION_DATE  = 
ORIGINATOR     = 

OBJECT_NAME    = STARLINK-36159
OBJECT_ID      = 2025-298E
CENTER_NAME    = EARTH
REF_FRAME      = TEME
TIME_SYSTEM    = UTC
MEAN_ELEMENT_THEORY = SGP/SGP4

EPOCH          = 2025-12-26T04:00:01.998720
MEAN_MOTION    = 15.77309915
ECCENTRICITY   = .0003737
INCLINATION    = 69.9968
RA_OF_ASC_NODE = 211.7881
ARG_OF_PERICENTER = 278.6644
MEAN_ANOMALY   = 192.2143

EPHEMERIS_TYPE = 0
CLASSIFICATION_TYPE = U
NORAD_CAT_ID   = 67079
ELEMENT_SET_NO = 999
REV_AT_EPOCH   = 313
BSTAR          = -.12153E-1
MEAN_MOTION_DOT = -.1767546E-1
MEAN_MOTION_DDOT = 0

CCSDS_OMM_VERS = 2.0
CREATION_DATE  = 
ORIGINATOR     = 

OBJECT_NAME    = STARLINK-36158
OBJECT_ID      = 2025-298F
CENTER_NAME    = EARTH
REF_FRAME      = TEME
TIME_SYSTEM    = UTC
MEAN_ELEMENT_THEORY = SGP/SGP4

EPOCH          = 2025-12-26T04:00:01.998720
MEAN_MOTION    = 15.77304936
ECCENTRICITY   = .0003536
INCLINATION    = 69.9967
RA_OF_ASC_NODE = 211.7861
ARG_OF_PERICENTER = 274.8656
MEAN_ANOMALY   = 198.1204

EPHEMERIS_TYPE = 0
CLASSIFICATION_TYPE = U
NORAD_CAT_ID   = 67080
ELEMENT_SET_NO = 999
REV_AT_EPOCH   = 307
BSTAR          = -.12191E-1
MEAN_MOTION_DOT = -.1771873E-1
MEAN_MOTION_DDOT = 0

CCSDS_OMM_VERS = 2.0
CREATION_DATE  = 
ORIGINATOR     = 

OBJECT_NAME    = STARLINK-35864
OBJECT_ID      = 2025-298G
CENTER_NAME    = EARTH
REF_FRAME      = TEME
TIME_SYSTEM    = UTC
MEAN_ELEMENT_THEORY = SGP/SGP4

EPOCH          = 2025-12-26T04:00:01.998720
MEAN_MOTION    = 15.77302142
ECCENTRICITY   = .0003711
INCLINATION    = 69.9969
RA_OF_ASC_NODE = 211.7837
ARG_OF_PERICENTER = 276.5628
MEAN_ANOMALY   = 198.3795

EPHEMERIS_TYPE = 0
CLASSIFICATION_TYPE = U
NORAD_CAT_ID   = 67081
ELEMENT_SET_NO = 999
REV_AT_EPOCH   = 313
BSTAR          = -.12176E-1
MEAN_MOTION_DOT = -.1769945E-1
MEAN_MOTION_DDOT = 0

CCSDS_OMM_VERS = 2.0
CREATION_DATE  = 
ORIGINATOR     = 

OBJECT_NAME    = STARLINK-36035
OBJECT_ID      = 2025-298H
CENTER_NAME    = EARTH
REF_FRAME      = TEME
TIME_SYSTEM    = UTC
MEAN_ELEMENT_THEORY = SGP/SGP4

EPOCH          = 2025-12-26T04:00:01.998720
MEAN_MOTION    = 15.77294476
ECCENTRICITY   = .0003747
INCLINATION    = 69.9970
RA_OF_ASC_NODE = 211.7814
ARG_OF_PERICENTER = 278.3798
MEAN_ANOMALY   = 198.6078

EPHEMERIS_TYPE = 0
CLASSIFICATION_TYPE = U
NORAD_CAT_ID   = 67082
ELEMENT_SET_NO = 999
REV_AT_EPOCH   = 313
BSTAR          = -.12156E-1
MEAN_MOTION_DOT = -.1766892E-1
MEAN_MOTION_DDOT = 0

CCSDS_OMM_VERS = 2.0
CREATION_DATE  = 
ORIGINATOR     = 

OBJECT_NAME    = STARLINK-36170
OBJECT_ID      = 2025-298J
CENTER_NAME    = EARTH
REF_FRAME      = TEME
TIME_SYSTEM    = UTC
MEAN_ELEMENT_THEORY = SGP/SGP4

EPOCH          = 2025-12-26T04:00:01.998720
MEAN_MOTION    = 15.77292092
ECCENTRICITY   = .0003613
INCLINATION    = 69.9966
RA_OF_ASC_NODE = 211.7786
ARG_OF_PERICENTER = 274.2826
MEAN_ANOMALY   = 204.7845

EPHEMERIS_TYPE = 0
CLASSIFICATION_TYPE = U
NORAD_CAT_ID   = 67083
ELEMENT_SET_NO = 999
REV_AT_EPOCH   = 313
BSTAR          = -.12201E-1
MEAN_MOTION_DOT = -.1772324E-1
MEAN_MOTION_DDOT = 0

CCSDS_OMM_VERS = 2.0
CREATION_DATE  = 
ORIGINATOR     = 

OBJECT_NAME    = STARLINK-36166
OBJECT_ID      = 2025-298K
CENTER_NAME    = EARTH
REF_FRAME      = TEME
TIME_SYSTEM    = UTC
MEAN_ELEMENT_THEORY = SGP/SGP4

EPOCH          = 2025-12-26T04:00:01.998720
MEAN_MOTION    = 15.77289485
ECCENTRICITY   = .0003705
INCLINATION    = 69.9967
RA_OF_ASC_NODE = 211.7762
ARG_OF_PERICENTER = 277.7159
MEAN_ANOMALY   = 203.3398

EPHEMERIS_TYPE = 0
CLASSIFICATION_TYPE = U
NORAD_CAT_ID   = 67084
ELEMENT_SET_NO = 999
REV_AT_EPOCH   = 307
BSTAR          = -.12215E-1
MEAN_MOTION_DOT = -.1774031E-1
MEAN_MOTION_DDOT = 0

CCSDS_OMM_VERS = 2.0
CREATION_DATE  = 
ORIGINATOR     = 

OBJECT_NAME    = STARLINK-35794
OBJECT_ID      = 2025-298L
CENTER_NAME    = EARTH
REF_FRAME      = TEME
TIME_SYSTEM    = UTC
MEAN_ELEMENT_THEORY = SGP/SGP4

EPOCH          = 2025-12-26T04:00:01.998720
MEAN_MOTION    = 15.77286355
ECCENTRICITY   = .0003672
INCLINATION    = 69.9967
RA_OF_ASC_NODE = 211.7739
ARG_OF_PERICENTER = 274.8566
MEAN_ANOMALY   = 208.1685

EPHEMERIS_TYPE = 0
CLASSIFICATION_TYPE = U
NORAD_CAT_ID   = 67085
ELEMENT_SET_NO = 999
REV_AT_EPOCH   = 313
BSTAR          = -.12215E-1
MEAN_MOTION_DOT = -.1773859E-1
MEAN_MOTION_DDOT = 0

