ELECTRON KICK STAGE R/B 
1 67074U 25297C   25359.98764074  .00359366  37348-4  17982-2 0  9998
2 67074  97.4815 148.0945 0188179 221.4493 137.2363 15.60381011  1844
STARLINK-36230          
1 67075U 25298A   25360.16668980 -.01770132  00000+0 -12161-1 0  9995
2 67075  69.9968 211.7984 0003768 277.4552 185.2756 15.77331927  3138
STARLINK-36240          
1 67076U 25298B   25360.16668980 -.01768583  00000+0 -12152-1 0  9993
2 67076  69.9967 211.7960 0003473 275.3092 189.3566 15.77330102  3139
STARLINK-36243          
1 67077U 25298C   25360.16668980 -.01769279  00000+0 -12161-1 0  9997
2 67077  69.9965 211.7933 0003724 278.0299 188.8252 15.77319548  3133
STARLINK-36236          
1 67078U 25298D   25360.16668980 -.01769265  00000+0 -12159-1 0  9990
2 67078  69.9970 211.7911 0003695 278.0924 190.5826 15.77323604  3133
STARLINK-36159          
1 67079U 25298E   25360.16668980 -.01767546  00000+0 -12153-1 0  9995
2 67079  69.9968 211.7881 0003737 278.6644 192.2143 15.77309915  3139
STARLINK-36158          
1 67080U 25298F   25360.16668980 -.01771873  00000+0 -12191-1 0  9997
2 67080  69.9967 211.7861 0003536 274.8656 198.1204 15.77304936  3070
STARLINK-35864          
1 67081U 25298G   25360.16668980 -.01769945  00000+0 -12176-1 0  9998
2 67081  69.9969 211.7837 0003711 276.5628 198.3795 15.77302142  3130
STARLINK-36035          
1 67082U 25298H   25360.16668980 -.01766892  00000+0 -12156-1 0  9995
2 67082  69.9970 211.7814 0003747 278.3798 198.6078 15.77294476  3132
STARLINK-36170          
1 67083U 25298J   25360.16668980 -.01772324  00000+0 -12201-1 0  9994
2 67083  69.9966 211.7786 0003613 274.2826 204.7845 15.77292092  3138
STARLINK-36166          
1 67084U 25298K   25360.16668980 -.01774031  00000+0 -12215-1 0  9997
2 67084  69.9967 211.7762 0003705 277.7159 203.3398 15.77289485  3076
STARLINK-35794          
1 67085U 25298L   25360.16668980 -.01773859  00000+0 -12215-1 0  9995
2 67085  69.9967 211.7739 0003672 274.8566 208.1685 15.77286355  3136
